{"type": "FeatureCollection", "features": [ {"type": "Feature", "properties": {"norad_id": 46992, "name": "FENGYUN 1C DEB", "group": "fengyun-1c-debris", "lat": -32.67600092214518, "lon": -25.73486096401757, "alt_km": 943.5160878472143, "timestamp": "2025-12-07T14:37:05.495211+00:00", "meta": {"OBJECT_NAME": "FENGYUN 1C DEB", "OBJECT_ID": "1999-025EZS", "EPOCH": "2025-11-30T16:28:49.931328", "MEAN_MOTION": 14.00675889, "ECCENTRICITY": 0.00717654, "INCLINATION": 98.8954, "RA_OF_ASC_NODE": 321.762, "ARG_OF_PERICENTER": 194.0114, "MEAN_ANOMALY": 165.9062, "EPHEMERIS_TYPE": 0, "CLASSIFICATION_TYPE": "U", "NORAD_CAT_ID": 46992, "ELEMENT_SET_NO": 999, "REV_AT_EPOCH": 60788, "BSTAR": 0.00049604417, "MEAN_MOTION_DOT": 7.12e-06, "MEAN_MOTION_DDOT": 0}, "tle": {"line1": "1 46992U 99025EZS 25334.68668902  .00000712  00000+0  49604-3 0  9992", "line2": "2 46992  98.8954 321.7620 0071765 194.0114 165.9062 14.00675889607888"}}, "geometry": {"type": "Point", "coordinates": [-25.73486096401757, -32.67600092214518]}}, {"type": "Feature", "properties": {"norad_id": 46993, "name": "FENGYUN 1C DEB", "group": "fengyun-1c-debris", "lat": 34.8936458747185, "lon": 94.38854316072084, "alt_km": 969.2812637075422, "timestamp": "2025-12-07T14:37:05.495221+00:00", "meta": {"OBJECT_NAME": "FENGYUN 1C DEB", "OBJECT_ID": "1999-025EZT", "EPOCH": "2025-11-27T14:29:20.258016", "MEAN_MOTION": 13.69128576, "ECCENTRICITY": 0.02626499, "INCLINATION": 98.723, "RA_OF_ASC_NODE": 91.4662, "ARG_OF_PERICENTER": 339.6374, "MEAN_ANOMALY": 83.9969, "EPHEMERIS_TYPE": 0, "CLASSIFICATION_TYPE": "U", "NORAD_CAT_ID": 46993, "ELEMENT_SET_NO": 999, "REV_AT_EPOCH": 60050, "BSTAR": 0.00042527912, "MEAN_MOTION_DOT": 4.29e-06, "MEAN_MOTION_DDOT": 0}, "tle": {"line1": "1 46993U 99025EZT 25331.60370669  .00000429  00000+0  42528-3 0  9995", "line2": "2 46993  98.7230  91.4662 0262649 339.6374  83.9969 13.69128576600507"}}, "geometry": {"type": "Point", "coordinates": [94.38854316072084, 34.8936458747185]}}, {"type": "Feature", "properties": {"norad_id": 46995, "name": "FENGYUN 1C DEB", "group": "fengyun-1c-debris", "lat": 63.39400777254036, "lon": 46.45235105222127, "alt_km": 878.7144356205417, "timestamp": "2025-12-07T14:37:05.495231+00:00", "meta": {"OBJECT_NAME": "FENGYUN 1C DEB", "OBJECT_ID": "1999-025EZV", "EPOCH": "2025-12-02T04:23:06.408384", "MEAN_MOTION": 13.86224088, "ECCENTRICITY": 0.01921313, "INCLINATION": 98.5974, "RA_OF_ASC_NODE": 59.0441, "ARG_OF_PERICENTER": 146.7857, "MEAN_ANOMALY": 214.5535, "EPHEMERIS_TYPE": 0, "CLASSIFICATION_TYPE": "U", "NORAD_CAT_ID": 46995, "ELEMENT_SET_NO": 999, "REV_AT_EPOCH": 60322, "BSTAR": 0.0031893895, "MEAN_MOTION_DOT": 4.221e-05, "MEAN_MOTION_DDOT": 0}, "tle": {"line1": "1 46995U 99025EZV 25336.18271306  .00004221  00000+0  31894-2 0  9990", "line2": "2 46995  98.5974  59.0441 0192131 146.7857 214.5535 13.86224088603225"}}, "geometry": {"type": "Point", "coordinates": [46.45235105222127, 63.39400777254036]}}, {"type": "Feature", "properties": {"norad_id": 46997, "name": "FENGYUN 1C DEB", "group": "fengyun-1c-debris", "lat": -18.999613571220873, "lon": 25.024806191303636, "alt_km": 786.0576182021214, "timestamp": "2025-12-07T14:37:05.495241+00:00", "meta": {"OBJECT_NAME": "FENGYUN 1C DEB", "OBJECT_ID": "1999-025EZX", "EPOCH": "2025-12-05T21:29:55.692672", "MEAN_MOTION": 14.27942614, "ECCENTRICITY": 0.00249135, "INCLINATION": 98.5588, "RA_OF_ASC_NODE": 20.3738, "ARG_OF_PERICENTER": 357.0536, "MEAN_ANOMALY": 181.4476, "EPHEMERIS_TYPE": 0, "CLASSIFICATION_TYPE": "U", "NORAD_CAT_ID": 46997, "ELEMENT_SET_NO": 999, "REV_AT_EPOCH": 62353, "BSTAR": 0.001888595, "MEAN_MOTION_DOT": 4.655e-05, "MEAN_MOTION_DDOT": 0}, "tle": {"line1": "1 46997U 99025EZX 25339.89578348  .00004655  00000+0  18886-2 0  9996", "line2": "2 46997  98.5588  20.3738 0024913 357.0536 181.4476 14.27942614623531"}}, "geometry": {"type": "Point", "coordinates": [25.024806191303636, -18.999613571220873]}}, {"type": "Feature", "properties": {"norad_id": 47001, "name": "FENGYUN 1C DEB", "group": "fengyun-1c-debris", "lat": 7.937633714781258, "lon": -139.47080528853925, "alt_km": 776.416940811413, "timestamp": "2025-12-07T14:37:05.495251+00:00", "meta": {"OBJECT_NAME": "FENGYUN 1C DEB", "OBJECT_ID": "1999-025FAB", "EPOCH": "2025-12-06T21:07:56.434656", "MEAN_MOTION": 14.38386589, "ECCENTRICITY": 0.00520961, "INCLINATION": 99.305, "RA_OF_ASC_NODE": 38.4304, "ARG_OF_PERICENTER": 66.818, "MEAN_ANOMALY": 293.848, "EPHEMERIS_TYPE": 0, "CLASSIFICATION_TYPE": "U", "NORAD_CAT_ID": 47001, "ELEMENT_SET_NO": 999, "REV_AT_EPOCH": 73830, "BSTAR": 0.0025130864, "MEAN_MOTION_DOT": 7.741e-05, "MEAN_MOTION_DDOT": 0}, "tle": {"line1": "1 47001U 99025FAB 25340.88051429  .00007741  00000+0  25131-2 0  9990", "line2": "2 47001  99.3050  38.4304 0052096  66.8180 293.8480 14.38386589738303"}}, "geometry": {"type": "Point", "coordinates": [-139.47080528853925, 7.937633714781258]}}, {"type": "Feature", "properties": {"norad_id": 47005, "name": "FENGYUN 1C DEB", "group": "fengyun-1c-debris", "lat": 33.67264901639142, "lon": 63.70988023314516, "alt_km": 888.0548060274477, "timestamp": "2025-12-07T14:37:05.495261+00:00", "meta": {"OBJECT_NAME": "FENGYUN 1C DEB", "OBJECT_ID": "1999-025FAF", "EPOCH": "2025-12-03T11:49:12.815616", "MEAN_MOTION": 14.10913141, "ECCENTRICITY": 0.00635736, "INCLINATION": 99.6019, "RA_OF_ASC_NODE": 65.7889, "ARG_OF_PERICENTER": 267.3996, "MEAN_ANOMALY": 108.1197, "EPHEMERIS_TYPE": 0, "CLASSIFICATION_TYPE": "U", "NORAD_CAT_ID": 47005, "ELEMENT_SET_NO": 999, "REV_AT_EPOCH": 82637, "BSTAR": 0.0032335345, "MEAN_MOTION_DOT": 5.865e-05, "MEAN_MOTION_DDOT": 0}, "tle": {"line1": "1 47005U 99025FAF 25337.49250944  .00005865  00000+0  32335-2 0  9999", "line2": "2 47005  99.6019  65.7889 0063573 267.3996 108.1197 14.10913141826379"}}, "geometry": {"type": "Point", "coordinates": [63.70988023314516, 33.67264901639142]}}, {"type": "Feature", "properties": {"norad_id": 47007, "name": "FENGYUN 1C DEB", "group": "fengyun-1c-debris", "lat": 59.28277639486018, "lon": -169.9266099276083, "alt_km": 727.6691384560181, "timestamp": "2025-12-07T14:37:05.495271+00:00", "meta": {"OBJECT_NAME": "FENGYUN 1C DEB", "OBJECT_ID": "1999-025FAH", "EPOCH": "2025-12-06T09:07:21.294912", "MEAN_MOTION": 13.97150222, "ECCENTRICITY": 0.02357639, "INCLINATION": 98.2069, "RA_OF_ASC_NODE": 203.0315, "ARG_OF_PERICENTER": 71.5722, "MEAN_ANOMALY": 291.0918, "EPHEMERIS_TYPE": 0, "CLASSIFICATION_TYPE": "U", "NORAD_CAT_ID": 47007, "ELEMENT_SET_NO": 999, "REV_AT_EPOCH": 78760, "BSTAR": 0.003786332, "MEAN_MOTION_DOT": 6.669e-05, "MEAN_MOTION_DDOT": 0}, "tle": {"line1": "1 47007U 99025FAH 25340.38010758  .00006669  00000+0  37863-2 0  9994", "line2": "2 47007  98.2069 203.0315 0235763  71.5722 291.0918 13.97150222787608"}}, "geometry": {"type": "Point", "coordinates": [-169.9266099276083, 59.28277639486018]}}, {"type": "Feature", "properties": {"norad_id": 47009, "name": "FENGYUN 1C DEB", "group": "fengyun-1c-debris", "lat": 34.71063264097934, "lon": -40.215889682567244, "alt_km": 1254.204262565886, "timestamp": "2025-12-07T14:37:05.495301+00:00", "meta": {"OBJECT_NAME": "FENGYUN 1C DEB", "OBJECT_ID": "1999-025FAK", "EPOCH": "2025-12-02T05:09:31.123584", "MEAN_MOTION": 13.37303446, "ECCENTRICITY": 0.0352227, "INCLINATION": 98.9376, "RA_OF_ASC_NODE": 321.2954, "ARG_OF_PERICENTER": 285.6992, "MEAN_ANOMALY": 70.555, "EPHEMERIS_TYPE": 0, "CLASSIFICATION_TYPE": "U", "NORAD_CAT_ID": 47009, "ELEMENT_SET_NO": 999, "REV_AT_EPOCH": 58668, "BSTAR": 0.00057132, "MEAN_MOTION_DOT": 3.87e-06, "MEAN_MOTION_DDOT": 0}, "tle": {"line1": "1 47009U 99025FAK 25336.21494356  .00000387  00000+0  57132-3 0  9996", "line2": "2 47009  98.9376 321.2954 0352227 285.6992  70.5550 13.37303446586681"}}, "geometry": {"type": "Point", "coordinates": [-40.215889682567244, 34.71063264097934]}}, {"type": "Feature", "properties": {"norad_id": 47012, "name": "FENGYUN 1C DEB", "group": "fengyun-1c-debris", "lat": 33.00237208020704, "lon": -145.25883080014958, "alt_km": 881.1766131291743, "timestamp": "2025-12-07T14:37:05.495313+00:00", "meta": {"OBJECT_NAME": "FENGYUN 1C DEB", "OBJECT_ID": "1999-025FAN", "EPOCH": "2025-12-05T22:22:36.481152", "MEAN_MOTION": 13.77908149, "ECCENTRICITY": 0.01638485, "INCLINATION": 98.755, "RA_OF_ASC_NODE": 218.9381, "ARG_OF_PERICENTER": 81.7177, "MEAN_ANOMALY": 280.2518, "EPHEMERIS_TYPE": 0, "CLASSIFICATION_TYPE": "U", "NORAD_CAT_ID": 47012, "ELEMENT_SET_NO": 999, "REV_AT_EPOCH": 54479, "BSTAR": 0.00065808903, "MEAN_MOTION_DOT": 6.91e-06, "MEAN_MOTION_DDOT": 0}, "tle": {"line1": "1 47012U 99025FAN 25339.93236668  .00000691  00000+0  65809-3 0  9990", "line2": "2 47012  98.7550 218.9381 0163848  81.7177 280.2518 13.77908149544797"}}, "geometry": {"type": "Point", "coordinates": [-145.25883080014958, 33.00237208020704]}}, {"type": "Feature", "properties": {"norad_id": 47013, "name": "FENGYUN 1C DEB", "group": "fengyun-1c-debris", "lat": 26.437068385399257, "lon": 47.761995990727875, "alt_km": 841.9115405245193, "timestamp": "2025-12-07T14:37:05.495323+00:00", "meta": {"OBJECT_NAME": "FENGYUN 1C DEB", "OBJECT_ID": "1999-025FAP", "EPOCH": "2025-11-16T11:10:59.954016", "MEAN_MOTION": 14.24672933, "ECCENTRICITY": 0.00559466, "INCLINATION": 98.0819, "RA_OF_ASC_NODE": 32.3431, "ARG_OF_PERICENTER": 238.0397, "MEAN_ANOMALY": 121.5338, "EPHEMERIS_TYPE": 0, "CLASSIFICATION_TYPE": "U", "NORAD_CAT_ID": 47013, "ELEMENT_SET_NO": 999, "REV_AT_EPOCH": 72885, "BSTAR": 0.0028202138, "MEAN_MOTION_DOT": 6.632e-05, "MEAN_MOTION_DDOT": 0}, "tle": {"line1": "1 47013U 99025FAP 25320.46597169  .00006632  00000+0  28202-2 0  9991", "line2": "2 47013  98.0819  32.3431 0055946 238.0397 121.5338 14.24672933728853"}}, "geometry": {"type": "Point", "coordinates": [47.761995990727875, 26.437068385399257]}}]}